[{"OBJECT_NAME":"THEA","OBJECT_ID":"2018-099AQ","EPOCH":"2026-03-09T22:33:02.658240","MEAN_MOTION":15.31454284,"ECCENTRICITY":0.00065849,"INCLINATION":97.4542,"RA_OF_ASC_NODE":137.8815,"ARG_OF_PERICENTER":275.4664,"MEAN_ANOMALY":84.5826,"EPHEMERIS_TYPE":0,"CLASSIFICATION_TYPE":"U","NORAD_CAT_ID":43796,"ELEMENT_SET_NO":999,"REV_AT_EPOCH":39748,"BSTAR":0.00074635274,"MEAN_MOTION_DOT":0.00022649,"MEAN_MOTION_DDOT":0},{"OBJECT_NAME":"STARLINK-32801","OBJECT_ID":"2025-034G","EPOCH":"2026-03-09T22:44:54.481056","MEAN_MOTION":15.30183304,"ECCENTRICITY":0.00013355,"INCLINATION":53.1573,"RA_OF_ASC_NODE":257.1174,"ARG_OF_PERICENTER":96.1512,"MEAN_ANOMALY":263.9641,"EPHEMERIS_TYPE":0,"CLASSIFICATION_TYPE":"U","NORAD_CAT_ID":63035,"ELEMENT_SET_NO":999,"REV_AT_EPOCH":5911,"BSTAR":0.001184157,"MEAN_MOTION_DOT":0.00034859,"MEAN_MOTION_DDOT":0}]
